{
  "type": "FeatureCollection",
  "features": [
    {
      "type": "Feature",
      "properties": {
        "norad_id": 44333,
        "name": "AT&T T-16",
        "group": "intelsat",
        "lat": 0.017044248230378638,
        "lon": 58.097681833360554,
        "alt_km": 35787.53686342162,
        "timestamp": "2025-12-04T05:42:43.045800+00:00",
        "meta_object_name": "AT&T T-16",
        "meta_object_id": "2019-034A",
        "meta_epoch": "2025-12-03T13:16:30.980640",
        "meta_mean_motion": 1.00268492,
        "meta_eccentricity": 4.555e-05,
        "meta_inclination": 0.0321,
        "meta_ra_of_asc_node": 73.2547,
        "meta_arg_of_pericenter": 90.5993,
        "meta_mean_anomaly": 7.0538,
        "meta_ephemeris_type": 0,
        "meta_classification_type": "U",
        "meta_norad_cat_id": 44333,
        "meta_element_set_no": 999,
        "meta_rev_at_epoch": 2367,
        "meta_bstar": 0,
        "meta_mean_motion_dot": -9.7e-07,
        "meta_mean_motion_ddot": 0,
        "tle_line1": "1 44333U 19034A   25337.55313635 -.00000097  00000+0  00000+0 0  9990",
        "tle_line2": "2 44333   0.0321  73.2547 0000455  90.5993   7.0538  1.00268492 23675"
      },
      "geometry": {
        "type": "Point",
        "coordinates": [
          58.097681833360554,
          0.017044248230378638
        ]
      }
    },
    {
      "type": "Feature",
      "properties": {
        "norad_id": 44476,
        "name": "INTELSAT 39 (IS-39)",
        "group": "intelsat",
        "lat": -0.04290961112013315,
        "lon": -139.07337664023467,
        "alt_km": 35784.941800099085,
        "timestamp": "2025-12-04T05:42:43.045811+00:00",
        "meta_object_name": "INTELSAT 39 (IS-39)",
        "meta_object_id": "2019-049B",
        "meta_epoch": "2025-12-03T20:07:48.019008",
        "meta_mean_motion": 1.00270304,
        "meta_eccentricity": 8.4e-05,
        "meta_inclination": 0.0175,
        "meta_ra_of_asc_node": 320.7835,
        "meta_arg_of_pericenter": 196.0033,
        "meta_mean_anomaly": 280.033,
        "meta_ephemeris_type": 0,
        "meta_classification_type": "U",
        "meta_norad_cat_id": 44476,
        "meta_element_set_no": 999,
        "meta_rev_at_epoch": 2316,
        "meta_bstar": 0,
        "meta_mean_motion_dot": 5.1e-07,
        "meta_mean_motion_ddot": 0,
        "tle_line1": "1 44476U 19049B   25337.83875022  .00000051  00000+0  00000+0 0  9997",
        "tle_line2": "2 44476   0.0175 320.7835 0000840 196.0033 280.0330  1.00270304 23167"
      },
      "geometry": {
        "type": "Point",
        "coordinates": [
          -139.07337664023467,
          -0.04290961112013315
        ]
      }
    },
    {
      "type": "Feature",
      "properties": {
        "norad_id": 46114,
        "name": "GALAXY 30 (G-30)",
        "group": "intelsat",
        "lat": 0.03870473622965653,
        "lon": 34.00375603433947,
        "alt_km": 35793.81411445126,
        "timestamp": "2025-12-04T05:42:43.045823+00:00",
        "meta_object_name": "GALAXY 30 (G-30)",
        "meta_object_id": "2020-056C",
        "meta_epoch": "2025-12-03T16:22:26.540832",
        "meta_mean_motion": 1.00272798,
        "meta_eccentricity": 0.00024561,
        "meta_inclination": 0.0142,
        "meta_ra_of_asc_node": 314.5503,
        "meta_arg_of_pericenter": 298.758,
        "meta_mean_anomaly": 300.0813,
        "meta_ephemeris_type": 0,
        "meta_classification_type": "U",
        "meta_norad_cat_id": 46114,
        "meta_element_set_no": 999,
        "meta_rev_at_epoch": 1933,
        "meta_bstar": 0,
        "meta_mean_motion_dot": 5.4e-07,
        "meta_mean_motion_ddot": 0,
        "tle_line1": "1 46114U 20056C   25337.68225163  .00000054  00000+0  00000+0 0  9999",
        "tle_line2": "2 46114   0.0142 314.5503 0002456 298.7580 300.0813  1.00272798 19339"
      },
      "geometry": {
        "type": "Point",
        "coordinates": [
          34.00375603433947,
          0.03870473622965653
        ]
      }
    },
    {
      "type": "Feature",
      "properties": {
        "norad_id": 54026,
        "name": "GALAXY 33 (G-33)",
        "group": "intelsat",
        "lat": 0.02770836146658453,
        "lon": 26.003388514589183,
        "alt_km": 35791.88400779008,
        "timestamp": "2025-12-04T05:42:43.045835+00:00",
        "meta_object_name": "GALAXY 33 (G-33)",
        "meta_object_id": "2022-128A",
        "meta_epoch": "2025-12-03T16:32:53.653632",
        "meta_mean_motion": 1.00272774,
        "meta_eccentricity": 0.0001987,
        "meta_inclination": 0.0145,
        "meta_ra_of_asc_node": 350.6489,
        "meta_arg_of_pericenter": 258.6126,
        "meta_mean_anomaly": 298.7501,
        "meta_ephemeris_type": 0,
        "meta_classification_type": "U",
        "meta_norad_cat_id": 54026,
        "meta_element_set_no": 999,
        "meta_rev_at_epoch": 1178,
        "meta_bstar": 0,
        "meta_mean_motion_dot": 9.6e-07,
        "meta_mean_motion_ddot": 0,
        "tle_line1": "1 54026U 22128A   25337.68950988  .00000096  00000+0  00000+0 0  9998",
        "tle_line2": "2 54026   0.0145 350.6489 0001987 258.6126 298.7501  1.00272774 11788"
      },
      "geometry": {
        "type": "Point",
        "coordinates": [
          26.003388514589183,
          0.02770836146658453
        ]
      }
    },
    {
      "type": "Feature",
      "properties": {
        "norad_id": 54027,
        "name": "GALAXY 34 (G-34)",
        "group": "intelsat",
        "lat": 0.04572764406423442,
        "lon": 30.046601697527652,
        "alt_km": 35790.49229787877,
        "timestamp": "2025-12-04T05:42:43.045846+00:00",
        "meta_object_name": "GALAXY 34 (G-34)",
        "meta_object_id": "2022-128B",
        "meta_epoch": "2025-12-03T16:34:01.045632",
        "meta_mean_motion": 1.00272088,
        "meta_eccentricity": 0.00013632,
        "meta_inclination": 0.0233,
        "meta_ra_of_asc_node": 321.8757,
        "meta_arg_of_pericenter": 286.2886,
        "meta_mean_anomaly": 304.1795,
        "meta_ephemeris_type": 0,
        "meta_classification_type": "U",
        "meta_norad_cat_id": 54027,
        "meta_element_set_no": 999,
        "meta_rev_at_epoch": 1195,
        "meta_bstar": 0,
        "meta_mean_motion_dot": 0,
        "meta_mean_motion_ddot": 0,
        "tle_line1": "1 54027U 22128B   25337.69028988  .00000000  00000+0  00000+0 0  9991",
        "tle_line2": "2 54027   0.0233 321.8757 0001363 286.2886 304.1795  1.00272088 11957"
      },
      "geometry": {
        "type": "Point",
        "coordinates": [
          30.046601697527652,
          0.04572764406423442
        ]
      }
    },
    {
      "type": "Feature",
      "properties": {
        "norad_id": 54243,
        "name": "GALAXY 31 (G-31)",
        "group": "intelsat",
        "lat": 0.028501851439521712,
        "lon": 37.97405531357828,
        "alt_km": 35791.748414138,
        "timestamp": "2025-12-04T05:42:43.045858+00:00",
        "meta_object_name": "GALAXY 31 (G-31)",
        "meta_object_id": "2022-153A",
        "meta_epoch": "2025-12-03T13:10:46.529760",
        "meta_mean_motion": 1.00271978,
        "meta_eccentricity": 0.00020966,
        "meta_inclination": 0.013,
        "meta_ra_of_asc_node": 357.9065,
        "meta_arg_of_pericenter": 269.749,
        "meta_mean_anomaly": 241.6575,
        "meta_ephemeris_type": 0,
        "meta_classification_type": "U",
        "meta_norad_cat_id": 54243,
        "meta_element_set_no": 999,
        "meta_rev_at_epoch": 517,
        "meta_bstar": 0,
        "meta_mean_motion_dot": 0,
        "meta_mean_motion_ddot": 0,
        "tle_line1": "1 54243U 22153A   25337.54914965  .00000000  00000+0  00000+0 0  9992",
        "tle_line2": "2 54243   0.0130 357.9065 0002096 269.7490 241.6575  1.00271978  5171"
      },
      "geometry": {
        "type": "Point",
        "coordinates": [
          37.97405531357828,
          0.028501851439521712
        ]
      }
    },
    {
      "type": "Feature",
      "properties": {
        "norad_id": 54244,
        "name": "GALAXY 32 (G-32)",
        "group": "intelsat",
        "lat": 0.03523720932636651,
        "lon": 67.99700645115293,
        "alt_km": 35792.43168008644,
        "timestamp": "2025-12-04T05:42:43.045869+00:00",
        "meta_object_name": "GALAXY 32 (G-32)",
        "meta_object_id": "2022-153B",
        "meta_epoch": "2025-12-03T13:19:23.206080",
        "meta_mean_motion": 1.00270437,
        "meta_eccentricity": 0.00025394,
        "meta_inclination": 0.0105,
        "meta_ra_of_asc_node": 329.1215,
        "meta_arg_of_pericenter": 335.3454,
        "meta_mean_anomaly": 237.0261,
        "meta_ephemeris_type": 0,
        "meta_classification_type": "U",
        "meta_norad_cat_id": 54244,
        "meta_element_set_no": 999,
        "meta_rev_at_epoch": 1118,
        "meta_bstar": 0,
        "meta_mean_motion_dot": -1.56e-06,
        "meta_mean_motion_ddot": 0,
        "tle_line1": "1 54244U 22153B   25337.55512970 -.00000156  00000+0  00000+0 0  9997",
        "tle_line2": "2 54244   0.0105 329.1215 0002539 335.3454 237.0261  1.00270437 11182"
      },
      "geometry": {
        "type": "Point",
        "coordinates": [
          67.99700645115293,
          0.03523720932636651
        ]
      }
    }
  ]
}